NORAD_CAT_ID,OBJECT_NAME,OBJECT_TYPE,EPOCH,MEAN_MOTION,ECCENTRICITY,INCLINATION,RA_OF_ASC_NODE,ARG_OF_PERICENTER,MEAN_ANOMALY,BSTAR,MEAN_MOTION_DOT,MEAN_MOTION_DDOT,TLE_LINE0,TLE_LINE1,TLE_LINE2,SEMIMAJOR_AXIS,PERIOD,APOGEE,PERIGEE,DECAYED
53572.0,STARLINK-4555,PAYLOAD,2024-03-05 12:14:38,15.08836507,0.0001451,53.2169,109.6546,81.8636,278.252,7.9748e-05,9.81e-06,0.0,0 STARLINK-4555,1 53572U 22101AX  24065.51016263  .00000981  00000-0  79748-4 0  9996,2 53572  53.2169 109.6546 0001451  81.8636 278.2520 15.08836507 85613,6917.891,95.438,540.76,538.752,0.0
53572.0,STARLINK-4555,PAYLOAD,2024-03-05 20:11:33,15.08840583,0.0001431,53.2167,108.1679,80.6648,279.4506,0.00012231,1.659e-05,0.0,0 STARLINK-4555,1 53572U 22101AX  24065.84135992  .00001659  00000-0  12231-3 0  9999,2 53572  53.2167 108.1679 0001431  80.6648 279.4506 15.08840583 85661,6917.879,95.438,540.734,538.754,0.0
53572.0,STARLINK-4555,PAYLOAD,2024-03-06 08:54:37,15.08850287,0.0001287,53.2163,105.7886,85.0698,275.0441,0.00014611,2.039e-05,0.0,0 STARLINK-4555,1 53572U 22101AX  24066.37127193  .00002039  00000-0  14611-3 0  9999,2 53572  53.2163 105.7886 0001287  85.0698 275.0441 15.08850287 85744,6917.849,95.437,540.604,538.824,0.0
53572.0,STARLINK-4555,PAYLOAD,2024-03-06 12:05:23,15.0885646,0.0001387,53.2163,105.1932,86.0562,274.0589,0.0001835,2.635e-05,0.0,0 STARLINK-4555,1 53572U 22101AX  24066.50374687  .00002635  00000-0  18350-3 0  9992,2 53572  53.2163 105.1932 0001387  86.0562 274.0589 15.08856460 85765,6917.83,95.437,540.655,538.736,0.0
53572.0,STARLINK-4555,PAYLOAD,2024-03-07 02:23:52,15.08828303,0.0001106,53.2189,102.5128,130.2315,229.8774,0.0002899,4.327e-05,0.0,0 STARLINK-4555,1 53572U 22101AX  24067.09991786  .00004327  00000-0  28990-3 0  9993,2 53572  53.2189 102.5128 0001106 130.2315 229.8774 15.08828303 85857,6917.916,95.438,540.546,539.016,0.0
53572.0,STARLINK-4555,PAYLOAD,2024-03-07 08:45:25,15.08842516,0.0001379,53.2165,101.3276,87.6998,272.4152,0.00015579,2.193e-05,0.0,0 STARLINK-4555,1 53572U 22101AX  24067.36487589  .00002193  00000-0  15579-3 0  9992,2 53572  53.2165 101.3276 0001379  87.6998 272.4152 15.08842516 85896,6917.873,95.437,540.692,538.784,0.0
53572.0,STARLINK-4555,PAYLOAD,2024-03-08 02:14:39,15.08846042,0.0001255,53.2169,98.0554,94.3105,265.803,2.2578e-05,7.2e-07,0.0,0 STARLINK-4555,1 53572U 22101AX  24068.09351363  .00000072  00000-0  22578-4 0  9995,2 53572  53.2169  98.0554 0001255  94.3105 265.8030 15.08846042 86002,6917.862,95.437,540.595,538.859,0.0
53572.0,STARLINK-4555,PAYLOAD,2024-03-08 08:36:12,15.08849734,0.0001384,53.2171,96.8654,94.9873,265.1277,-0.00011807,-2.167e-05,0.0,0 STARLINK-4555,1 53572U 22101AX  24068.35847467 -.00002167  00000-0 -11807-3 0  9990,2 53572  53.2171  96.8654 0001384  94.9873 265.1277 15.08849734 86044,6917.851,95.437,540.673,538.758,0.0
53572.0,STARLINK-4555,PAYLOAD,2024-03-09 02:05:26,15.08838635,0.0001392,53.2169,93.5946,95.7326,264.3824,1.2672e-05,-8.6e-07,0.0,0 STARLINK-4555,1 53572U 22101AX  24069.08711679 -.00000086  00000-0  12672-4 0  9995,2 53572  53.2169  93.5946 0001392  95.7326 264.3824 15.08838635 86159,6917.885,95.438,540.713,538.787,0.0
53572.0,STARLINK-4555,PAYLOAD,2024-03-09 08:26:59,15.08837417,0.0001386,53.217,92.4069,92.5545,267.5606,4.6685e-06,-2.14e-06,0.0,0 STARLINK-4555,1 53572U 22101AX  24069.35207862 -.00000214  00000-0  46685-5 0  9994,2 53572  53.2170  92.4069 0001386  92.5545 267.5606 15.08837417 86190,6917.888,95.438,540.712,538.794,0.0
53572.0,STARLINK-4555,PAYLOAD,2024-03-10 06:42:24,15.08829303,0.0001398,53.2171,88.2439,93.8666,266.2486,2.5465e-05,1.17e-06,0.0,0 STARLINK-4555,1 53572U 22101AX  24070.27944576  .00000117  00000-0  25465-4 0  9990,2 53572  53.2171  88.2439 0001398  93.8666 266.2486 15.08829303 86339,6917.913,95.438,540.745,538.811,0.0
53572.0,STARLINK-4555,PAYLOAD,2024-03-10 17:50:05,15.08834757,0.0001383,53.2172,86.1622,92.0291,268.086,5.8579e-05,6.44e-06,0.0,0 STARLINK-4555,1 53572U 22101AX  24070.74312337  .00000644  00000-0  58579-4 0  9993,2 53572  53.2172  86.1622 0001383  92.0291 268.0860 15.08834757 86403,6917.896,95.438,540.718,538.805,0.0
53572.0,STARLINK-4555,PAYLOAD,2024-03-11 04:57:47,15.08836302,0.0001353,53.217,84.0802,90.4589,269.6558,8.1748e-05,1.013e-05,0.0,0 STARLINK-4555,1 53572U 22101AX  24071.20680300  .00001013  00000-0  81748-4 0  9998,2 53572  53.2170  84.0802 0001353  90.4589 269.6558 15.08836302 86473,6917.892,95.438,540.693,538.821,0.0
53572.0,STARLINK-4555,PAYLOAD,2024-03-11 08:08:33,15.08838748,0.0001381,53.2173,83.4858,90.8796,269.2354,0.00010106,1.321e-05,0.0,0 STARLINK-4555,1 53572U 22101AX  24071.33928134  .00001321  00000-0  10106-3 0  9993,2 53572  53.2173  83.4858 0001381  90.8796 269.2354 15.08838748 86493,6917.884,95.438,540.705,538.794,0.0
53572.0,STARLINK-4555,PAYLOAD,2024-03-11 17:40:52,15.08843456,0.000144,53.218,81.701,88.3062,271.8095,0.00013129,1.802e-05,0.0,0 STARLINK-4555,1 53572U 22101AX  24071.73671775  .00001802  00000-0  13129-3 0  9995,2 53572  53.2180  81.7010 0001440  88.3062 271.8095 15.08843456 86556,6917.87,95.437,540.731,538.739,0.0
53572.0,STARLINK-4555,PAYLOAD,2024-03-12 04:48:35,15.08836521,0.0002001,53.2182,79.6173,84.2348,275.8872,4.3551e-05,4.05e-06,0.0,0 STARLINK-4555,1 53572U 22101AX  24072.20040771  .00000405  00000-0  43551-4 0  9995,2 53572  53.2182  79.6173 0002001  84.2348 275.8872 15.08836521 86620,6917.891,95.438,541.14,538.372,0.0
53572.0,STARLINK-4555,PAYLOAD,2024-03-12 09:34:44,15.08834755,0.0001463,53.2182,78.7255,87.2819,272.8341,3.1135e-05,2.08e-06,0.0,0 STARLINK-4555,1 53572U 22101AX  24072.39912835  .00000208  00000-0  31135-4 0  9990,2 53572  53.2182  78.7255 0001463  87.2819 272.8341 15.08834755 86656,6917.896,95.438,540.774,538.749,0.0
53572.0,STARLINK-4555,PAYLOAD,2024-03-13 09:25:31,15.08843806,0.0001514,53.2179,74.2673,89.6142,270.5024,6.0511e-05,6.75e-06,0.0,0 STARLINK-4555,1 53572U 22101AX  24073.39272252  .00000675  00000-0  60511-4 0  9991,2 53572  53.2179  74.2673 0001514  89.6142 270.5024 15.08843806 86806,6917.869,95.437,540.781,538.686,0.0
53572.0,STARLINK-4555,PAYLOAD,2024-03-13 17:22:26,15.08851894,0.0001366,53.2175,72.7792,114.3118,245.8017,5.2185e-05,5.43e-06,0.0,0 STARLINK-4555,1 53572U 22101AX  24073.72391480  .00000543  00000-0  52185-4 0  9995,2 53572  53.2175  72.7792 0001366 114.3118 245.8017 15.08851894 86859,6917.844,95.437,540.654,538.764,0.0
53572.0,STARLINK-4555,PAYLOAD,2024-03-14 04:30:08,15.08839214,0.0001246,53.2175,70.6981,106.1466,253.9663,0.00012457,1.695e-05,0.0,0 STARLINK-4555,1 53572U 22101AX  24074.18760131  .00001695  00000-0  12457-3 0  9995,2 53572  53.2175  70.6981 0001246 106.1466 253.9663 15.08839214 86925,6917.883,95.438,540.61,538.886,0.0
53572.0,STARLINK-4555,PAYLOAD,2024-03-14 06:05:32,15.08828505,0.0001419,53.2179,70.4017,97.3166,262.7988,0.00025141,3.714e-05,0.0,0 STARLINK-4555,1 53572U 22101AX  24074.25384755  .00003714  00000-0  25141-3 0  9995,2 53572  53.2179  70.4017 0001419  97.3166 262.7988 15.08828505 86937,6917.916,95.438,540.762,538.799,0.0
53572.0,STARLINK-4555,PAYLOAD,2024-03-15 04:20:56,15.08840229,0.000148,53.2176,66.236,107.2506,252.8649,9.2518e-06,-1.41e-06,0.0,0 STARLINK-4555,1 53572U 22101AX  24075.18120373 -.00000141  00000-0  92518-5 0  9998,2 53572  53.2176  66.2360 0001480 107.2506 252.8649 15.08840229 87072,6917.88,95.438,540.769,538.721,0.0
53572.0,STARLINK-4555,PAYLOAD,2024-03-15 09:07:05,15.08840934,0.0001343,53.2169,65.3444,98.576,261.5384,5.146e-08,-2.87e-06,0.0,0 STARLINK-4555,1 53572U 22101AX  24075.37992331 -.00000287  00000-0  51460-7 0  9994,2 53572  53.2169  65.3444 0001343  98.5760 261.5384 15.08840934 87109,6917.878,95.437,540.672,538.813,0.0
53572.0,STARLINK-4555,PAYLOAD,2024-03-16 05:47:06,15.08835136,0.0001422,53.2176,61.4782,95.6658,264.4497,2.8767e-06,-2.42e-06,0.0,0 STARLINK-4555,1 53572U 22101AX  24076.24104787 -.00000242  00000-0  28767-5 0  9994,2 53572  53.2176  61.4782 0001422  95.6658 264.4497 15.08835136 87230,6917.895,95.438,540.744,538.777,0.0
53572.0,STARLINK-4555,PAYLOAD,2024-03-17 05:37:53,15.08834668,0.0001434,53.2181,57.0175,105.9675,254.1475,4.3593e-05,4.06e-06,0.0,0 STARLINK-4555,1 53572U 22101AX  24077.23464913  .00000406  00000-0  43593-4 0  9998,2 53572  53.2181  57.0175 0001434 105.9675 254.1475 15.08834668 87387,6917.897,95.438,540.754,538.77,0.0
53572.0,STARLINK-4555,PAYLOAD,2024-03-17 21:31:45,15.08835258,0.0001387,53.2185,54.0459,100.5668,259.548,6.0534e-05,6.75e-06,0.0,0 STARLINK-4555,1 53572U 22101AX  24077.89705074  .00000675  00000-0  60534-4 0  9998,2 53572  53.2185  54.0459 0001387 100.5668 259.5480 15.08835258 87485,6917.895,95.438,540.719,538.8,0.0
53572.0,STARLINK-4555,PAYLOAD,2024-03-18 03:53:17,15.08836131,0.0001391,53.2186,52.8565,99.898,260.2169,6.1059e-05,6.84e-06,0.0,0 STARLINK-4555,1 53572U 22101AX  24078.16201092  .00000684  00000-0  61059-4 0  9993,2 53572  53.2186  52.8565 0001391  99.8980 260.2169 15.08836131 87521,6917.892,95.438,540.719,538.795,0.0
53572.0,STARLINK-4555,PAYLOAD,2024-03-19 06:54:50,15.08845649,0.0001493,53.219,47.8013,106.5145,253.6011,0.00012587,1.716e-05,0.0,0 STARLINK-4555,1 53572U 22101AX  24079.28808556  .00001716  00000-0  12587-3 0  9993,2 53572  53.2190  47.8013 0001493 106.5145 253.6011 15.08845649 87694,6917.863,95.437,540.761,538.695,0.0
53572.0,STARLINK-4555,PAYLOAD,2024-03-20 06:45:37,15.08843919,0.0001558,53.2193,43.3412,108.9665,251.1496,8.9002e-05,1.129e-05,0.0,0 STARLINK-4555,1 53572U 22101AX  24080.28168637  .00001129  00000-0  89002-4 0  9999,2 53572  53.2193  43.3412 0001558 108.9665 251.1496 15.08843919 87841,6917.868,95.437,540.811,538.656,0.0
53572.0,STARLINK-4555,PAYLOAD,2024-03-21 03:25:39,15.08835467,0.0001511,53.2189,39.4737,113.2657,246.8494,-6.1462e-05,-1.266e-05,0.0,0 STARLINK-4555,1 53572U 22101AX  24081.14281685 -.00001266  00000-0 -61462-4 0  9998,2 53572  53.2189  39.4737 0001511 113.2657 246.8494 15.08835467 87973,6917.894,95.438,540.805,538.714,0.0
